{
  "type": "FeatureCollection",
  "features": [
    {
      "type": "Feature",
      "properties": {
        "norad_id": 31183,
        "name": "FENGYUN 1C DEB",
        "group": "fengyun-1c-debris",
        "lat": -49.48144844933684,
        "lon": -10.3481038281906,
        "alt_km": 754.5518012352968,
        "timestamp": "2025-12-20T14:38:02.250609+00:00",
        "meta_object_name": "FENGYUN 1C DEB",
        "meta_object_id": "1999-025BJM",
        "meta_epoch": "2025-12-19T22:33:57.168000",
        "meta_mean_motion": 14.5049359,
        "meta_eccentricity": 0.004772,
        "meta_inclination": 99.0365,
        "meta_ra_of_asc_node": 338.2022,
        "meta_arg_of_pericenter": 86.2702,
        "meta_mean_anomaly": 329.8752,
        "meta_ephemeris_type": 0,
        "meta_classification_type": "U",
        "meta_norad_cat_id": 31183,
        "meta_element_set_no": 999,
        "meta_rev_at_epoch": 97587,
        "meta_bstar": 0.0007845,
        "meta_mean_motion_dot": 3.063e-05,
        "meta_mean_motion_ddot": 0,
        "tle_line1": "1 31183U 99025BJM 25353.94024500  .00003063  00000+0  78450-3 0  9991",
        "tle_line2": "2 31183  99.0365 338.2022 0047720  86.2702 329.8752 14.50493590975877"
      },
      "geometry": {
        "type": "Point",
        "coordinates": [
          -10.3481038281906,
          -49.48144844933684
        ]
      }
    },
    {
      "type": "Feature",
      "properties": {
        "norad_id": 31185,
        "name": "FENGYUN 1C DEB",
        "group": "fengyun-1c-debris",
        "lat": -3.483528293261328,
        "lon": -8.609709343673043,
        "alt_km": 885.2369222431971,
        "timestamp": "2025-12-20T14:38:02.250619+00:00",
        "meta_object_name": "FENGYUN 1C DEB",
        "meta_object_id": "1999-025BJP",
        "meta_epoch": "2025-12-03T06:44:56.905152",
        "meta_mean_motion": 14.03019915,
        "meta_eccentricity": 0.0041359,
        "meta_inclination": 98.8321,
        "meta_ra_of_asc_node": 334.0356,
        "meta_arg_of_pericenter": 132.5488,
        "meta_mean_anomaly": 227.9182,
        "meta_ephemeris_type": 0,
        "meta_classification_type": "U",
        "meta_norad_cat_id": 31185,
        "meta_element_set_no": 999,
        "meta_rev_at_epoch": 62204,
        "meta_bstar": 0.0004459,
        "meta_mean_motion_dot": 6.55e-06,
        "meta_mean_motion_ddot": 0,
        "tle_line1": "1 31185U 99025BJP 25337.28121418  .00000655  00000+0  44590-3 0  9990",
        "tle_line2": "2 31185  98.8321 334.0356 0041359 132.5488 227.9182 14.03019915622046"
      },
      "geometry": {
        "type": "Point",
        "coordinates": [
          -8.609709343673043,
          -3.483528293261328
        ]
      }
    },
    {
      "type": "Feature",
      "properties": {
        "norad_id": 31186,
        "name": "FENGYUN 1C DEB",
        "group": "fengyun-1c-debris",
        "lat": 76.20992159050712,
        "lon": 131.37323061663622,
        "alt_km": 832.1804145207416,
        "timestamp": "2025-12-20T14:38:02.250629+00:00",
        "meta_object_name": "FENGYUN 1C DEB",
        "meta_object_id": "1999-025BJQ",
        "meta_epoch": "2025-12-19T13:30:27.946080",
        "meta_mean_motion": 14.12917828,
        "meta_eccentricity": 0.0026476,
        "meta_inclination": 99.1791,
        "meta_ra_of_asc_node": 269.0931,
        "meta_arg_of_pericenter": 44.5258,
        "meta_mean_anomaly": 133.2754,
        "meta_ephemeris_type": 0,
        "meta_classification_type": "U",
        "meta_norad_cat_id": 31186,
        "meta_element_set_no": 999,
        "meta_rev_at_epoch": 96201,
        "meta_bstar": 0.00034315,
        "meta_mean_motion_dot": 5.94e-06,
        "meta_mean_motion_ddot": 0,
        "tle_line1": "1 31186U 99025BJQ 25353.56282345  .00000594  00000+0  34315-3 0  9993",
        "tle_line2": "2 31186  99.1791 269.0931 0026476  44.5258 133.2754 14.12917828962016"
      },
      "geometry": {
        "type": "Point",
        "coordinates": [
          131.37323061663622,
          76.20992159050712
        ]
      }
    },
    {
      "type": "Feature",
      "properties": {
        "norad_id": 31187,
        "name": "FENGYUN 1C DEB",
        "group": "fengyun-1c-debris",
        "lat": -50.596899345777004,
        "lon": 27.52289241380961,
        "alt_km": 568.0877934786658,
        "timestamp": "2025-12-20T14:38:02.250639+00:00",
        "meta_object_name": "FENGYUN 1C DEB",
        "meta_object_id": "1999-025BJR",
        "meta_epoch": "2025-12-18T02:20:54.271104",
        "meta_mean_motion": 14.59549756,
        "meta_eccentricity": 0.02196552,
        "meta_inclination": 99.2414,
        "meta_ra_of_asc_node": 216.1564,
        "meta_arg_of_pericenter": 207.4437,
        "meta_mean_anomaly": 151.5021,
        "meta_ephemeris_type": 0,
        "meta_classification_type": "U",
        "meta_norad_cat_id": 31187,
        "meta_element_set_no": 999,
        "meta_rev_at_epoch": 69178,
        "meta_bstar": 0.0021858268,
        "meta_mean_motion_dot": 0.00014532,
        "meta_mean_motion_ddot": 0,
        "tle_line1": "1 31187U 99025BJR 25352.09785036  .00014532  00000+0  21858-2 0  9990",
        "tle_line2": "2 31187  99.2414 216.1564 0219655 207.4437 151.5021 14.59549756691782"
      },
      "geometry": {
        "type": "Point",
        "coordinates": [
          27.52289241380961,
          -50.596899345777004
        ]
      }
    },
    {
      "type": "Feature",
      "properties": {
        "norad_id": 31188,
        "name": "FENGYUN 1C DEB",
        "group": "fengyun-1c-debris",
        "lat": 80.23772813141302,
        "lon": -54.12296593898011,
        "alt_km": 834.2048577650621,
        "timestamp": "2025-12-20T14:38:02.250649+00:00",
        "meta_object_name": "FENGYUN 1C DEB",
        "meta_object_id": "1999-025BJS",
        "meta_epoch": "2025-12-18T12:11:17.333664",
        "meta_mean_motion": 14.23861687,
        "meta_eccentricity": 0.00606265,
        "meta_inclination": 98.7493,
        "meta_ra_of_asc_node": 60.267,
        "meta_arg_of_pericenter": 232.9769,
        "meta_mean_anomaly": 253.727,
        "meta_ephemeris_type": 0,
        "meta_classification_type": "U",
        "meta_norad_cat_id": 31188,
        "meta_element_set_no": 999,
        "meta_rev_at_epoch": 96418,
        "meta_bstar": 0.0012167761,
        "meta_mean_motion_dot": 2.796e-05,
        "meta_mean_motion_ddot": 0,
        "tle_line1": "1 31188U 99025BJS 25352.50783951  .00002796  00000+0  12168-2 0  9994",
        "tle_line2": "2 31188  98.7493  60.2670 0060626 232.9769 253.7270 14.23861687964182"
      },
      "geometry": {
        "type": "Point",
        "coordinates": [
          -54.12296593898011,
          80.23772813141302
        ]
      }
    },
    {
      "type": "Feature",
      "properties": {
        "norad_id": 31190,
        "name": "FENGYUN 1C DEB",
        "group": "fengyun-1c-debris",
        "lat": 40.22515152114964,
        "lon": -0.44677263803330197,
        "alt_km": 925.1657908814905,
        "timestamp": "2025-12-20T14:38:02.250659+00:00",
        "meta_object_name": "FENGYUN 1C DEB",
        "meta_object_id": "1999-025BJU",
        "meta_epoch": "2025-12-15T23:14:05.075520",
        "meta_mean_motion": 14.03609027,
        "meta_eccentricity": 0.00676763,
        "meta_inclination": 98.819,
        "meta_ra_of_asc_node": 2.5971,
        "meta_arg_of_pericenter": 250.3103,
        "meta_mean_anomaly": 109.0754,
        "meta_ephemeris_type": 0,
        "meta_classification_type": "U",
        "meta_norad_cat_id": 31190,
        "meta_element_set_no": 999,
        "meta_rev_at_epoch": 95592,
        "meta_bstar": 0.00091857664,
        "meta_mean_motion_dot": 1.428e-05,
        "meta_mean_motion_ddot": 0,
        "tle_line1": "1 31190U 99025BJU 25349.96811430  .00001428  00000+0  91858-3 0  9992",
        "tle_line2": "2 31190  98.8190   2.5971 0067676 250.3103 109.0754 14.03609027955929"
      },
      "geometry": {
        "type": "Point",
        "coordinates": [
          -0.44677263803330197,
          40.22515152114964
        ]
      }
    },
    {
      "type": "Feature",
      "properties": {
        "norad_id": 31191,
        "name": "FENGYUN 1C DEB",
        "group": "fengyun-1c-debris",
        "lat": -64.45985368334402,
        "lon": 56.83406153225713,
        "alt_km": 745.2347563393614,
        "timestamp": "2025-12-20T14:38:02.250669+00:00",
        "meta_object_name": "FENGYUN 1C DEB",
        "meta_object_id": "1999-025BJV",
        "meta_epoch": "2025-12-20T00:10:04.982304",
        "meta_mean_motion": 14.40805759,
        "meta_eccentricity": 0.00926097,
        "meta_inclination": 98.7829,
        "meta_ra_of_asc_node": 255.0929,
        "meta_arg_of_pericenter": 172.7634,
        "meta_mean_anomaly": 187.4915,
        "meta_ephemeris_type": 0,
        "meta_classification_type": "U",
        "meta_norad_cat_id": 31191,
        "meta_element_set_no": 999,
        "meta_rev_at_epoch": 98117,
        "meta_bstar": 0.00021491188,
        "meta_mean_motion_dot": 6.75e-06,
        "meta_mean_motion_ddot": 0,
        "tle_line1": "1 31191U 99025BJV 25354.00700211  .00000675  00000+0  21491-3 0  9997",
        "tle_line2": "2 31191  98.7829 255.0929 0092609 172.7634 187.4915 14.40805759981172"
      },
      "geometry": {
        "type": "Point",
        "coordinates": [
          56.83406153225713,
          -64.45985368334402
        ]
      }
    }
  ]
}